2026-134A               
1 69538U 26134A   26194.17661650  .00002682  00000+0  17125-3 0  9997
2 69538  97.7006 264.3833 0015930 177.3314 182.8002 15.09451639  4238
2026-134B               
1 69539U 26134B   26194.04114334  .00002782  00000+0  17675-3 0  9997
2 69539  97.6979 264.2453 0015998 180.2919 179.8303 15.09607553  4207
2026-134C               
1 69540U 26134C   26194.04055771  .00002690  00000+0  17090-3 0  9997
2 69540  97.6986 264.2482 0015479 181.4206 178.6981 15.09639430  4203
2026-134D               
1 69541U 26134D   26194.17205853  .00002759  00000+0  17486-3 0  9995
2 69541  97.7025 264.3963 0016556 180.8405 179.2798 15.09698095  4222
2026-134E               
1 69542U 26134E   26194.17165211  .00002664  00000+0  16886-3 0  9997
2 69542  97.7044 264.4035 0016254 181.4797 178.6386 15.09719453  4229
2026-134F               
1 69543U 26134F   26194.17080325  .00002644  00000+0  16748-3 0  9995
2 69543  97.6997 264.3881 0015566 183.1513 176.9620 15.09764757  4223
2026-134G               
1 69544U 26134G   26194.16924407  .00002659  00000+0  16800-3 0  9998
2 69544  97.7041 264.4055 0016000 184.0253 176.0850 15.09849609  4220
2026-134H               
1 69545U 26134H   26194.03547750  .00002882  00000+0  18143-3 0  9997
2 69545  97.7025 264.2689 0015823 185.7695 174.3354 15.09915965  4199
STARLINK-37880          
1 69546U 26135A   26194.16668980 -.00031331  00000+0 -57637-3 0  9996
2 69546  97.2844 222.4420 0000098   9.4101 168.3569 15.49206526  5489
STARLINK-37881          
1 69547U 26135B   26194.16668980 -.00759737  00000+0 -14895-1 0  9991
2 69547  97.2842 222.5343 0001408  73.4119 321.5713 15.49667563  5485
STARLINK-37265          
1 69548U 26135C   26194.16668980 -.02748994  00000+0 -40313-1 0  9991
2 69548  97.2845 222.6022 0001802  73.6634 122.6849 15.58963609  5486
STARLINK-37871          
1 69549U 26135D   26194.16668980 -.00721704  00000+0 -13371-1 0  9994
2 69549  97.2838 222.5293 0001336  87.7304 283.1220 15.51530606  5486
STARLINK-37865          
1 69550U 26135E   26194.16668980 -.00915696  00000+0 -16969-1 0  9997
2 69550  97.2936 222.5359 0001158  61.3296 337.3431 15.51726234  5480
STARLINK-37862          
1 69551U 26135F   26194.16668980 -.01404692  00000+0 -19685-1 0  9996
2 69551  97.2840 222.5866 0001556  74.7054  85.5118 15.59563656  5489
STARLINK-37861          
1 69552U 26135G   26194.16668980 -.03248469  00000+0 -61994-1 0  9997
2 69552  97.2835 222.5659 0001530  47.4728  48.7524 15.51873134  5480
STARLINK-37859          
1 69553U 26135H   26194.16668980 -.02271066  00000+0 -40565-1 0  9997
2 69553  97.2839 222.5804 0001665  76.9362  50.5631 15.53569467  5480
STARLINK-37860          
1 69554U 26135J   26194.16668980 -.02472012  00000+0 -39705-1 0  9996
2 69554  97.2837 222.6130 0001892  86.1583 120.5569 15.56768319  5480
STARLINK-37858          
1 69555U 26135K   26194.16668980 -.02456108  00000+0 -40911-1 0  9996
2 69555  97.2847 222.6022 0002004  65.0968 115.0548 15.55766349  5487
STARLINK-37927          
1 69556U 26135L   26194.16668980 -.00877321  00000+0 -17353-1 0  9993
2 69556  97.2836 222.5603 0000936  99.4952 343.4722 15.49781657  5489
STARLINK-37929          
1 69557U 26135M   26194.16668980 -.00031397  00000+0 -57745-3 0  9990
2 69557  97.2839 222.5146 0001539  88.6122 257.6641 15.49211700  5487
STARLINK-37954          
1 69558U 26135N   26194.16668980 -.00026333  00000+0 -48380-3 0  9990
2 69558  97.2840 222.5180 0000901  73.3879 279.7119 15.49209162  5484
STARLINK-37958          
1 69559U 26135P   26194.11192781 -.00469642  00000+0 -55393-2 0  9992
2 69559  97.2840 222.5958 0000982 346.3476  13.7755 15.62783064  4353
STARLINK-37950          
1 69560U 26135Q   26194.16668980 -.02481521  00000+0 -41288-1 0  9997
2 69560  97.2845 222.6110 0002250  87.7182 118.7332 15.55835378  5481
STARLINK-37952          
1 69561U 26135R   26194.16668980 -.00013046  00000+0 -23867-3 0  9994
2 69561  97.2840 222.5688 0001607  64.9967  44.9584 15.49181019  5487
STARLINK-37935          
1 69562U 26135S   26194.16668980 -.00029000  00000+0 -53318-3 0  9996
2 69562  97.2841 222.5217 0001604  84.1829 278.5514 15.49205679  5482
STARLINK-37936          
1 69563U 26135T   26194.16668980 -.00024920  00000+0 -45756-3 0  9990
2 69563  97.2838 222.5548 0001756  82.5607 358.1140 15.49214402  5484
STARLINK-37932          
1 69564U 26135U   26194.16668980 -.02473302  00000+0 -39696-1 0  9999
2 69564  97.2848 222.6504 0001736  97.3421 196.1569 15.56792510  5489
STARLINK-37916          
1 69565U 26135V   26194.16668980 -.02144618  00000+0 -37886-1 0  9994
2 69565  97.2837 222.6135 0001820  72.0553 136.8349 15.53664392  5488
STARLINK-37909          
1 69566U 26135W   26194.16668980 -.02664428  00000+0 -35320-1 0  9992
2 69566  97.2838 222.6943 0001697  42.0289   7.5585 15.62097381  5486
STARLINK-37934          
1 69567U 26135X   26194.12787238 -.00345207  00000+0 -60303-2 0  9996
2 69567  97.2840 222.5744 0001130  30.4167 329.7151 15.51855035  4366
